STARLINK-31913          
1 59667U 24084P   26068.28563546  .00000152  00000+0  15055-4 0  9999
2 59667  43.0063  40.4201 0001926 269.9979  90.0652 15.27582330104352
COSMOS 2588             
1 64095U 25109A   26068.81179522  .00009169  00000+0  32611-3 0  9998
2 64095  72.9704  73.5401 0005019 308.6780  51.3966 15.29122656 44425
